{
  "type": "FeatureCollection",
  "features": [
    {
      "type": "Feature",
      "properties": {
        "norad_id": 34750,
        "name": "COSMOS 2251 DEB",
        "group": "cosmos-2251-debris",
        "lat": -73.57258608170673,
        "lon": 106.12332134822613,
        "alt_km": 700.7589671012693,
        "timestamp": "2025-12-07T20:38:14.458538+00:00",
        "meta_object_name": "COSMOS 2251 DEB",
        "meta_object_id": "1993-036ZU",
        "meta_epoch": "2025-12-07T02:02:19.292064",
        "meta_mean_motion": 14.61239755,
        "meta_eccentricity": 0.00391391,
        "meta_inclination": 74.1078,
        "meta_ra_of_asc_node": 212.5158,
        "meta_arg_of_pericenter": 167.5737,
        "meta_mean_anomaly": 342.9046,
        "meta_ephemeris_type": 0,
        "meta_classification_type": "U",
        "meta_norad_cat_id": 34750,
        "meta_element_set_no": 999,
        "meta_rev_at_epoch": 88148,
        "meta_bstar": 0.0016468354,
        "meta_mean_motion_dot": 8.189e-05,
        "meta_mean_motion_ddot": 0,
        "tle_line1": "1 34750U 93036ZU  25341.08494551  .00008189  00000+0  16468-2 0  9993",
        "tle_line2": "2 34750  74.1078 212.5158 0039139 167.5737 342.9046 14.61239755881483"
      },
      "geometry": {
        "type": "Point",
        "coordinates": [
          106.12332134822613,
          -73.57258608170673
        ]
      }
    },
    {
      "type": "Feature",
      "properties": {
        "norad_id": 34752,
        "name": "COSMOS 2251 DEB",
        "group": "cosmos-2251-debris",
        "lat": 73.9779397682193,
        "lon": 97.23964015176959,
        "alt_km": 539.4377872051709,
        "timestamp": "2025-12-07T20:38:14.458548+00:00",
        "meta_object_name": "COSMOS 2251 DEB",
        "meta_object_id": "1993-036ZW",
        "meta_epoch": "2025-12-06T02:36:58.038912",
        "meta_mean_motion": 14.9970291,
        "meta_eccentricity": 0.00481191,
        "meta_inclination": 74.0135,
        "meta_ra_of_asc_node": 14.0973,
        "meta_arg_of_pericenter": 144.9255,
        "meta_mean_anomaly": 215.5117,
        "meta_ephemeris_type": 0,
        "meta_classification_type": "U",
        "meta_norad_cat_id": 34752,
        "meta_element_set_no": 999,
        "meta_rev_at_epoch": 89750,
        "meta_bstar": 0.0014680231,
        "meta_mean_motion_dot": 0.00018574,
        "meta_mean_motion_ddot": 0,
        "tle_line1": "1 34752U 93036ZW  25340.10900508  .00018574  00000+0  14680-2 0  9994",
        "tle_line2": "2 34752  74.0135  14.0973 0048119 144.9255 215.5117 14.99702910897503"
      },
      "geometry": {
        "type": "Point",
        "coordinates": [
          97.23964015176959,
          73.9779397682193
        ]
      }
    },
    {
      "type": "Feature",
      "properties": {
        "norad_id": 34754,
        "name": "COSMOS 2251 DEB",
        "group": "cosmos-2251-debris",
        "lat": 24.287660920284267,
        "lon": -115.946392319602,
        "alt_km": 738.1549901372982,
        "timestamp": "2025-12-07T20:38:14.458558+00:00",
        "meta_object_name": "COSMOS 2251 DEB",
        "meta_object_id": "1993-036ZY",
        "meta_epoch": "2025-12-06T21:45:37.262592",
        "meta_mean_motion": 14.40468356,
        "meta_eccentricity": 0.00293263,
        "meta_inclination": 74.0305,
        "meta_ra_of_asc_node": 238.3916,
        "meta_arg_of_pericenter": 355.6432,
        "meta_mean_anomaly": 128.5636,
        "meta_ephemeris_type": 0,
        "meta_classification_type": "U",
        "meta_norad_cat_id": 34754,
        "meta_element_set_no": 999,
        "meta_rev_at_epoch": 88049,
        "meta_bstar": 0.00039674075,
        "meta_mean_motion_dot": 1.241e-05,
        "meta_mean_motion_ddot": 0,
        "tle_line1": "1 34754U 93036ZY  25340.90668128  .00001241  00000+0  39674-3 0  9997",
        "tle_line2": "2 34754  74.0305 238.3916 0029326 355.6432 128.5636 14.40468356880497"
      },
      "geometry": {
        "type": "Point",
        "coordinates": [
          -115.946392319602,
          24.287660920284267
        ]
      }
    },
    {
      "type": "Feature",
      "properties": {
        "norad_id": 34755,
        "name": "COSMOS 2251 DEB",
        "group": "cosmos-2251-debris",
        "lat": -73.84110044552065,
        "lon": -157.82884279308146,
        "alt_km": 875.1231491379758,
        "timestamp": "2025-12-07T20:38:14.458568+00:00",
        "meta_object_name": "COSMOS 2251 DEB",
        "meta_object_id": "1993-036ZZ",
        "meta_epoch": "2025-12-07T05:21:37.079712",
        "meta_mean_motion": 13.50532818,
        "meta_eccentricity": 0.04083361,
        "meta_inclination": 73.9259,
        "meta_ra_of_asc_node": 298.8912,
        "meta_arg_of_pericenter": 319.6826,
        "meta_mean_anomaly": 98.5646,
        "meta_ephemeris_type": 0,
        "meta_classification_type": "U",
        "meta_norad_cat_id": 34755,
        "meta_element_set_no": 999,
        "meta_rev_at_epoch": 82449,
        "meta_bstar": 0.0029279704,
        "meta_mean_motion_dot": 3.136e-05,
        "meta_mean_motion_ddot": 0,
        "tle_line1": "1 34755U 93036ZZ  25341.22334583  .00003136  00000+0  29280-2 0  9995",
        "tle_line2": "2 34755  73.9259 298.8912 0408336 319.6826  98.5646 13.50532818824490"
      },
      "geometry": {
        "type": "Point",
        "coordinates": [
          -157.82884279308146,
          -73.84110044552065
        ]
      }
    },
    {
      "type": "Feature",
      "properties": {
        "norad_id": 34756,
        "name": "COSMOS 2251 DEB",
        "group": "cosmos-2251-debris",
        "lat": -57.5514789840241,
        "lon": -40.78461097618511,
        "alt_km": 1086.7314016697528,
        "timestamp": "2025-12-07T20:38:14.458578+00:00",
        "meta_object_name": "COSMOS 2251 DEB",
        "meta_object_id": "1993-036AAA",
        "meta_epoch": "2025-12-06T15:20:34.011456",
        "meta_mean_motion": 13.67223659,
        "meta_eccentricity": 0.03447029,
        "meta_inclination": 74.0022,
        "meta_ra_of_asc_node": 114.4011,
        "meta_arg_of_pericenter": 351.5473,
        "meta_mean_anomaly": 7.9922,
        "meta_ephemeris_type": 0,
        "meta_classification_type": "U",
        "meta_norad_cat_id": 34756,
        "meta_element_set_no": 999,
        "meta_rev_at_epoch": 83338,
        "meta_bstar": 0.0013877943,
        "meta_mean_motion_dot": 1.734e-05,
        "meta_mean_motion_ddot": 0,
        "tle_line1": "1 34756U 93036AAA 25340.63928254  .00001734  00000+0  13878-2 0  9992",
        "tle_line2": "2 34756  74.0022 114.4011 0344702 351.5473   7.9922 13.67223659833380"
      },
      "geometry": {
        "type": "Point",
        "coordinates": [
          -40.78461097618511,
          -57.5514789840241
        ]
      }
    },
    {
      "type": "Feature",
      "properties": {
        "norad_id": 34758,
        "name": "COSMOS 2251 DEB",
        "group": "cosmos-2251-debris",
        "lat": 16.06921294007103,
        "lon": 122.6431380342418,
        "alt_km": 1036.7793011156818,
        "timestamp": "2025-12-07T20:38:14.458589+00:00",
        "meta_object_name": "COSMOS 2251 DEB",
        "meta_object_id": "1993-036AAC",
        "meta_epoch": "2025-12-07T03:58:01.932960",
        "meta_mean_motion": 13.58044292,
        "meta_eccentricity": 0.03808423,
        "meta_inclination": 74.1072,
        "meta_ra_of_asc_node": 308.4678,
        "meta_arg_of_pericenter": 73.5298,
        "meta_mean_anomaly": 290.73,
        "meta_ephemeris_type": 0,
        "meta_classification_type": "U",
        "meta_norad_cat_id": 34758,
        "meta_element_set_no": 999,
        "meta_rev_at_epoch": 82834,
        "meta_bstar": 0.0016693524,
        "meta_mean_motion_dot": 1.92e-05,
        "meta_mean_motion_ddot": 0,
        "tle_line1": "1 34758U 93036AAC 25341.16530015  .00001920  00000+0  16694-2 0  9993",
        "tle_line2": "2 34758  74.1072 308.4678 0380842  73.5298 290.7300 13.58044292828349"
      },
      "geometry": {
        "type": "Point",
        "coordinates": [
          122.6431380342418,
          16.06921294007103
        ]
      }
    },
    {
      "type": "Feature",
      "properties": {
        "norad_id": 34760,
        "name": "COSMOS 2251 DEB",
        "group": "cosmos-2251-debris",
        "lat": 47.683420925809465,
        "lon": -30.640589456842168,
        "alt_km": 773.6557508559554,
        "timestamp": "2025-12-07T20:38:14.458599+00:00",
        "meta_object_name": "COSMOS 2251 DEB",
        "meta_object_id": "1993-036AAE",
        "meta_epoch": "2025-12-07T05:15:17.217792",
        "meta_mean_motion": 14.1954657,
        "meta_eccentricity": 0.0096491,
        "meta_inclination": 74.0632,
        "meta_ra_of_asc_node": 312.2122,
        "meta_arg_of_pericenter": 5.5971,
        "meta_mean_anomaly": 9.8015,
        "meta_ephemeris_type": 0,
        "meta_classification_type": "U",
        "meta_norad_cat_id": 34760,
        "meta_element_set_no": 999,
        "meta_rev_at_epoch": 86610,
        "meta_bstar": 0.0010727511,
        "meta_mean_motion_dot": 2.345e-05,
        "meta_mean_motion_ddot": 0,
        "tle_line1": "1 34760U 93036AAE 25341.21894928  .00002345  00000+0  10728-2 0  9992",
        "tle_line2": "2 34760  74.0632 312.2122 0096491   5.5971   9.8015 14.19546570866109"
      },
      "geometry": {
        "type": "Point",
        "coordinates": [
          -30.640589456842168,
          47.683420925809465
        ]
      }
    }
  ]
}